"Orcus:90482 Orcus:2004 DW" "Sol"
{
	Class	"asteroid"  # Candidate to the Dwarf Planet
	Texture	"asteroid.jpg"
	Radius	458.5
	OrbitColor	[ 0.27451 0.078431 0.54902 ]
	Visible	true
	Clickable	true
	EllipticalOrbit
	{
		Epoch	2457000.5  # 2014 Dec 09+
		Period	247.87975405474
		SemiMajorAxis	39.4598323899821
		Eccentricity	0.2184290122654654
		Inclination	20.55201347342247
		AscendingNode	268.481627646052
		ArgOfPericenter	73.39553738443479
		MeanAnomaly	172.5684571430559
	}
	UniformRotation
	{
		Period	13.18841
	}
	Albedo	0.231
	InfoURL	"https://en.wikipedia.org/wiki/90482_Orcus"
}

"Vanth:90482 Orcus I:Orcus I:2005 90482 I" "Sol/90482 Orcus"
{
	Class	"moon"
	Mesh	"roughsphere.cmod"
	Orientation	[ 180 1 0 0 ]
	Texture	"asteroid.jpg"
	Color	[ 1.00 0.670 0.375 ]
	BlendTexture	true
	Radius	138
	Visible	true
	Clickable	true
	EllipticalOrbit
	{
		Epoch	2454439.28  # 2007 Dec 04 18:43:12+
		Period	9.539
		SemiMajorAxis	9006
		Eccentricity	0.001
		Inclination	90.2
		AscendingNode	50.0
		MeanAnomaly	143.1
	}
	Albedo	0.12
	InfoURL	"http://www.johnstonsarchive.net/astro/astmoons/am-90482.html"
}

"2004 GV9:90568 2004 GV9" "Sol"
{
	Class	"asteroid"  # Candidate to the Dwarf Planet
	Texture	"darkasteroid.jpg"
	Radius	340
	OrbitColor	[ 0.27451 0.078431 0.54902 ]
	Visible	true
	Clickable	true
	EllipticalOrbit
	{
		Epoch	2457000.5  # 2014 Dec 09+
		Period	272.762425440753
		SemiMajorAxis	42.058220563358
		Eccentricity	0.079949758533
		Inclination	21.998660987955
		AscendingNode	250.577333452633
		ArgOfPericenter	291.862641158942
		MeanAnomaly	34.482142614556
	}
	UniformRotation
	{
		Period	5.86
	}
	Albedo	0.077
	InfoURL	"http://ssd.jpl.nasa.gov/sbdb.cgi?sstr=90568"
}

"Bennu:101955 Bennu:1999 RQ36" "Sol"
{
	Class	"asteroid"
	Mesh	"bennu.cmod"
	Orientation	[ 90 0 1 0 ]
	Texture	"darkasteroid.jpg"
	Radius	0.2825
	Visible	true
	Clickable	true
	EllipticalOrbit
	{
		Epoch	2455562.5  # 2011 Jan 01+
		Period	1.195479064102
		SemiMajorAxis	1.126391025983
		Eccentricity	0.203745128236
		Inclination	6.034936934608
		AscendingNode	2.060867741322
		ArgOfPericenter	66.2230735282
		MeanAnomaly	101.703945362495
	}
	UniformRotation
	{
		Period	4.297
		Inclination	176
	}
	Albedo	0.046
	InfoURL	"https://en.wikipedia.org/wiki/101955_Bennu"
}

"2002 WC19:119979 2002 WC19" "Sol"
{
	Class	"asteroid"  # Candidate to the Dwarf Planet
	Texture	"darkasteroid.jpg"
	Radius	220
	OrbitColor	[ 0.27451 0.078431 0.54902 ]
	Visible	true
	Clickable	true
	EllipticalOrbit
	{
		Epoch	2457000.5  # 2014 Dec 09++
		Period	334.133975621627
		SemiMajorAxis	48.151330351112
		Eccentricity	0.265635875803
		Inclination	9.16851012515
		AscendingNode	109.774228203243
		ArgOfPericenter	43.751685314506
		MeanAnomaly	315.338191526945
	}
	UniformRotation
	{
		Period	6
	}
	Albedo	0.07
	InfoURL	"http://ssd.jpl.nasa.gov/sbdb.cgi?sstr=119979"
}

"2007 119979 I" "Sol/119979 2002 WC19"
{
	Class	"moon"
	Mesh	"asteroid.cmod"
	Texture	"darkasteroid.jpg"
	Radius	69.5
	Visible	true
	Clickable	true
	EllipticalOrbit
	{
		Period	8.403
		SemiMajorAxis	4090
		Eccentricity	0.2
	}
	Albedo	0.07
	InfoURL	"http://www.johnstonsarchive.net/astro/astmoons/am-119979.html"
}

"Salacia:120347 Salacia:2004 SB60" "Sol"
{
	Class	"asteroid"  # Candidate to the Dwarf Planet
	Texture	"darkasteroid.jpg"
	Radius	427
	OrbitColor	[ 0.27451 0.078431 0.54902 ]
	Visible	true
	Clickable	true
	EllipticalOrbit
	{
		Epoch	2457000.5  # 2014 Dec 09++
		Period	271.289501203195
		SemiMajorAxis	41.906673637311
		Eccentricity	0.107326476334
		Inclination	23.942086136431
		AscendingNode	280.208132447504
		ArgOfPericenter	308.008459942669
		MeanAnomaly	120.360755407181
	}
	UniformRotation
	{
		Period	6.5
	}
	Albedo	0.044
	InfoURL	"https://en.wikipedia.org/wiki/120347_Salacia"
}

"Actaea:120347 Salacia I:Salacia I:2006 120347 I" "Sol/120347 Salacia"
{
	Class	"moon"
	Mesh	"roughsphere.cmod"
	Orientation	[ 180 1 0 0 ]
	Texture	"darkasteroid.jpg"
	Radius	143
	Visible	true
	Clickable	true
	EllipticalOrbit
	{
		Period	5.49380
		SemiMajorAxis	5619
		Eccentricity	0.0084  
	}
	Albedo	0.044
	InfoURL	"http://www.johnstonsarchive.net/astro/astmoons/am-120347.html"
}

"APL:132524 APL:2002 JF56" "Sol"
{
	Class	"asteroid"
	Mesh	"asteroid.cmod"
	Texture	"asteroid.jpg"
	Radius	1.15
	Visible	true
	Clickable	true
	EllipticalOrbit
	{
		Epoch	2453899.5  # 2006 Jun 13+
		Period	4.2066743461856
		SemiMajorAxis	2.605876286628448
		Eccentricity	0.2714355390920677
		Inclination	4.163281385976950
		AscendingNode	51.78946343547695
		ArgOfPericenter	262.0254463743247
		MeanAnomaly	297.2221938933485
	}
	UniformRotation
	{
		Period	6
	}
	Albedo	0.1
	InfoURL	"http://ssd.jpl.nasa.gov/sbdb.cgi?sstr=132524"
}

"2001 QG298 System" "Sol"  # Barycenter
{
	Class	"asteroid"
	Mesh	""
	Radius	68
	Visible	true
	Clickable	true
	EllipticalOrbit
	{
		Epoch	2457000.5  # 2014 Dec 09++
		Period	246.377579567947
		SemiMajorAxis	39.300250755328
		Eccentricity	0.191793092693
		Inclination	6.497709636413
		AscendingNode	162.595637100203
		ArgOfPericenter	209.685636351959
		MeanAnomaly	5.523935834278
	}
	Albedo	0
	InfoURL	"http://www.johnstonsarchive.net/astro/astmoons/am-139775.html"
}

"2001 QG298:139775 2001 QG298" "Sol/2001 QG298 System"
{
	Class	"asteroid"
	Mesh	"roughsphere.cmod"
	Texture	"asteroid.jpg"
	SemiAxes	[ 82 65 58 ]
	Visible	true
	Clickable	true
	EllipticalOrbit
	{
		Period	0.573933
		SemiMajorAxis	68
		ArgOfPericenter	200
	}
	UniformRotation
	{
		Period	13.774392
	}
	Albedo	0.1
	InfoURL	"http://ssd.jpl.nasa.gov/sbdb.cgi?sstr=139775"
}

"2004 139775 I" "Sol/2001 QG298 System"
{
	Class	"asteroid"
	Mesh	"roughsphere.cmod"
	Orientation	[ 180 1 0 0 ]
	Texture	"asteroid.jpg"
	SemiAxes	[ 84 80 75 ]
	Visible	true
	Clickable	true
	EllipticalOrbit
	{
		Period	0.573933
		SemiMajorAxis	104
		ArgOfPericenter	20
	}
	UniformRotation
	{
		Period	13.774392
	}
	Albedo	0.1
	InfoURL	"http://www.johnstonsarchive.net/astro/astmoons/am-139775.html"
}


"2005 RN43:145452 2005 RN43" "Sol"
{
	Class	"asteroid"  # Candidate to the Dwarf Planet
	Texture	"asteroid.jpg"
	Radius	339.5
	OrbitColor	[ 0.27451 0.078431 0.54902 ]
	Visible	true
	Clickable	true
	EllipticalOrbit
	{
		Epoch	2457000.5  # 2014 Dec 09+
		Period	266.10986673041
		SemiMajorAxis	41.37155551941084
		Eccentricity	0.01985749870233349
		Inclination	19.29786164154896
		AscendingNode	186.9500389108745
		ArgOfPericenter	178.1102024692385
		MeanAnomaly	333.6951630339105
	}
	UniformRotation
	{
		Period	6.95
	}
	Albedo	0.1
	InfoURL	"http://ssd.jpl.nasa.gov/sbdb.cgi?sstr=145452"
}

"Altjira System" "Sol"  # Barycenter
{
	Class	"asteroid"
	Mesh	""
	Radius	2729
	Visible	true
	Clickable	true
	EllipticalOrbit
	{
		Epoch	2457000.5  # 2014 Dec 09++
		Period	295.37504146466
		SemiMajorAxis	44.35171272196187
		Eccentricity	0.05839038150209473
		Inclination	5.20462398507132
		AscendingNode	1.989458444017555
		ArgOfPericenter	300.1561628060923
		MeanAnomaly	120.5090911992867
	}
	Albedo	0
	InfoURL	"http://www.johnstonsarchive.net/astro/astmoons/am-148780.html"
}

"Altjira:148780 Altjira:2001 UQ18" "Sol/Altjira System"
{
	Class	"asteroid"
	Mesh	"roughsphere.cmod"
	Texture	"asteroid.jpg"
	Radius	123
	Visible	true
	Clickable	true
	EllipticalOrbit
	{
		Epoch	2454300.0  # 2007 Jul 18 12:00
		Period	139.561
		SemiMajorAxis	4163
		Eccentricity	0.3445
		Inclination	35.19
		AscendingNode	312.73
		ArgOfPericenter	281.96
		MeanAnomaly	224.89
	}
	UniformRotation
	{
		Period	3349.464
		Inclination	35.19
		AscendingNode	312.73
	}
	Albedo	0.1
	InfoURL	"http://ssd.jpl.nasa.gov/sbdb.cgi?sstr=148780"
}

"2007 148780 I" "Sol/Altjira System"
{
	Class	"asteroid"
	Mesh	"roughsphere.cmod"
	Orientation	[ 180 1 0 0 ]
	Texture	"asteroid.jpg"
	Radius	110.5
	Visible	true
	Clickable	true
	EllipticalOrbit
	{
		Epoch	2454300.0  # 2007 Jul 18 12:00
		Period	139.561
		SemiMajorAxis	5741
		Eccentricity	0.3445
		Inclination	35.19
		AscendingNode	312.73
		ArgOfPericenter	101.96
		MeanAnomaly	224.89
	}
	UniformRotation
	{
		Period	3349.464
		Inclination	35.19
		AscendingNode	312.73
	}
	Albedo	0.1
	InfoURL	"http://www.johnstonsarchive.net/astro/astmoons/am-148780.html"
}

"Ryugu:162173 Ryugu:1999 JU3" "Sol"
{
	Class	"asteroid"
	Mesh	"asteroid.cmod"
	Texture	"asteroid.jpg"
	Radius	0.490
	Visible	true
	Clickable	true
	EllipticalOrbit
	{
		Epoch	2457000.5  # 2014 Dec 09+
		Period	1.297357202153
		SemiMajorAxis	1.189508573396
		Eccentricity	0.190260012521
		Inclination	5.883876645567
		AscendingNode	251.611720614838
		ArgOfPericenter	211.425716033738
		MeanAnomaly	114.326399555117
	}
	UniformRotation
	{
		Period	7.627
	}
	Albedo	0.1
	InfoURL	"http://ssd.jpl.nasa.gov/sbdb.cgi?sstr=162173"
}

"Varda-Ilmare" "Sol"  # Barycenter
{
	Class	"asteroid"
	Mesh	""
	Radius	558
	OrbitColor	[ 0.27451 0.078431 0.54902 ]
	Visible	true
	Clickable	true
	EllipticalOrbit
	{
		Epoch	2457000.5  # 2014 Dec 09++
		Period	308.782620501552
		SemiMajorAxis	45.683892143712
		Eccentricity	0.14090552251
		Inclination	21.50017141058
		AscendingNode	183.994138431281
		ArgOfPericenter	183.943165671985
		MeanAnomaly	264.685872831353
	}
	Albedo	0
	InfoURL	"http://www.johnstonsarchive.net/astro/astmoons/am-174567.html"
}

"Varda:174567 Varda:2003 MW12" "Sol/Varda-Ilmare"
{
	Class	"asteroid"  # Candidate to the Dwarf Planet
	Texture	"asteroid.jpg"
	Radius	352.5
	Visible	true
	Clickable	true
	EllipticalOrbit
	{
		Period	5.7508
		SemiMajorAxis	568
		Eccentricity	0.017
		ArgOfPericenter	200
	}
	UniformRotation
	{
		Period	5.91
	}
	Albedo	0.102
	InfoURL	"https://en.wikipedia.org/wiki/174567_Varda"
}

